[{"OBJECT_NAME":"ICEYE-X4","OBJECT_ID":"2019-038D","EPOCH":"2026-03-09T23:53:58.416000","MEAN_MOTION":15.26985132,"ECCENTRICITY":0.00122769,"INCLINATION":97.8888,"RA_OF_ASC_NODE":96.1923,"ARG_OF_PERICENTER":293.9914,"MEAN_ANOMALY":66.0038,"EPHEMERIS_TYPE":0,"CLASSIFICATION_TYPE":"U","NORAD_CAT_ID":44390,"ELEMENT_SET_NO":999,"REV_AT_EPOCH":36665,"BSTAR":0.00049915294,"MEAN_MOTION_DOT":0.00013179,"MEAN_MOTION_DDOT":0},{"OBJECT_NAME":"STARLINK-32760","OBJECT_ID":"2025-006Q","EPOCH":"2026-03-09T23:15:50.262336","MEAN_MOTION":15.27584304,"ECCENTRICITY":7.151e-5,"INCLINATION":42.9966,"RA_OF_ASC_NODE":291.1356,"ARG_OF_PERICENTER":264.7707,"MEAN_ANOMALY":95.3063,"EPHEMERIS_TYPE":0,"CLASSIFICATION_TYPE":"U","NORAD_CAT_ID":62568,"ELEMENT_SET_NO":999,"REV_AT_EPOCH":6490,"BSTAR":0.0011122932,"MEAN_MOTION_DOT":0.00030476,"MEAN_MOTION_DDOT":0}]
